[
    {
        "Altitude(m)": 607886.7424488468,
        "Argument of Periapsis(deg)": 0.0,
        "Eccentricity": 0.0,
        "Inclination(deg)": 60.0,
        "Latitude(deg)": 40.99858179579991,
        "Longitude(deg)": 99.97295160070573,
        "Mean Anomaly(deg)": 49.09089999999999,
        "RAAN(deg)": 170.00000000000003,
        "Satellite Name": "Test1 751",
        "Satellite Number": 751,
        "Semi-Major Axis(m)": 6980739.136638005,
        "Time(s)": 0
    },
    {
        "Altitude(m)": 607987.6567050959,
        "Argument of Periapsis(deg)": 0.00010418945913296404,
        "Eccentricity": 0.0,
        "Inclination(deg)": 60.0,
        "Latitude(deg)": 41.46367213788257,
        "Longitude(deg)": 100.47718007874147,
        "Mean Anomaly(deg)": 49.71100614546182,
        "RAAN(deg)": 169.99957995086027,
        "Satellite Name": "Test1 751",
        "Satellite Number": 751,
        "Semi-Major Axis(m)": 6980739.136638005,
        "Time(s)": 10
    },
    {
        "Altitude(m)": 608088.6205639773,
        "Argument of Periapsis(deg)": 0.0002083789182659281,
        "Eccentricity": 0.0,
        "Inclination(deg)": 60.0,
        "Latitude(deg)": 41.92609829972062,
        "Longitude(deg)": 100.98923161564589,
        "Mean Anomaly(deg)": 50.33111229092365,
        "RAAN(deg)": 169.99915990172053,
        "Satellite Name": "Test1 751",
        "Satellite Number": 751,
        "Semi-Major Axis(m)": 6980739.136638005,
        "Time(s)": 20
    },
    {
        "Altitude(m)": 608189.5708041446,
        "Argument of Periapsis(deg)": 0.00031256837739889213,
        "Eccentricity": 0.0,
        "Inclination(deg)": 60.0,
        "Latitude(deg)": 42.385779531314995,
        "Longitude(deg)": 101.5093022541962,
        "Mean Anomaly(deg)": 50.951218436385474,
        "RAAN(deg)": 169.99873985258077,
        "Satellite Name": "Test1 751",
        "Satellite Number": 751,
        "Semi-Major Axis(m)": 6980739.136638005,
        "Time(s)": 30
    },
    {
        "Altitude(m)": 608290.4444309892,
        "Argument of Periapsis(deg)": 0.0004167578365318562,
        "Eccentricity": 0.0,
        "Inclination(deg)": 60.0,
        "Latitude(deg)": 42.842632535602434,
        "Longitude(deg)": 102.03759190394504,
        "Mean Anomaly(deg)": 51.5713245818473,
        "RAAN(deg)": 169.99831980344106,
        "Satellite Name": "Test1 751",
        "Satellite Number": 751,
        "Semi-Major Axis(m)": 6980739.136638005,
        "Time(s)": 40
    },
    {
        "Altitude(m)": 608391.1787078799,
        "Argument of Periapsis(deg)": 0.0005209472956648203,
        "Eccentricity": 0.0,
        "Inclination(deg)": 60.0,
        "Latitude(deg)": 43.29657138906763,
        "Longitude(deg)": 102.57430324619834,
        "Mean Anomaly(deg)": 52.191430727309154,
        "RAAN(deg)": 169.99789975430127,
        "Satellite Name": "Test1 751",
        "Satellite Number": 751,
        "Semi-Major Axis(m)": 6980739.136638005,
        "Time(s)": 50
    },
    {
        "Altitude(m)": 608491.7111872606,
        "Argument of Periapsis(deg)": 0.0006251367547977843,
        "Eccentricity": 0.0,
        "Inclination(deg)": 60.0,
        "Latitude(deg)": 43.74750746164639,
        "Longitude(deg)": 103.1196421321029,
        "Mean Anomaly(deg)": 52.81153687277099,
        "RAAN(deg)": 169.99747970516154,
        "Satellite Name": "Test1 751",
        "Satellite Number": 751,
        "Semi-Major Axis(m)": 6980739.136638005,
        "Time(s)": 60
    },
    {
        "Altitude(m)": 608591.9797415102,
        "Argument of Periapsis(deg)": 0.0007293262139307483,
        "Eccentricity": 0.0,
        "Inclination(deg)": 60.0,
        "Latitude(deg)": 44.195349336151715,
        "Longitude(deg)": 103.6738179590778,
        "Mean Anomaly(deg)": 53.43164301823282,
        "RAAN(deg)": 169.9970596560218,
        "Satellite Name": "Test1 751",
        "Satellite Number": 751,
        "Semi-Major Axis(m)": 6980739.136638005,
        "Time(s)": 70
    },
    {
        "Altitude(m)": 608691.9225936601,
        "Argument of Periapsis(deg)": 0.0008335156730637124,
        "Eccentricity": 0.0,
        "Inclination(deg)": 60.0,
        "Latitude(deg)": 44.64000272748706,
        "Longitude(deg)": 104.23704251070264,
        "Mean Anomaly(deg)": 54.051749163694645,
        "RAAN(deg)": 169.99663960688207,
        "Satellite Name": "Test1 751",
        "Satellite Number": 751,
        "Semi-Major Axis(m)": 6980739.136638005,
        "Time(s)": 80
    },
    {
        "Altitude(m)": 608791.4783478405,
        "Argument of Periapsis(deg)": 0.0009377051321966765,
        "Eccentricity": 0.0,
        "Inclination(deg)": 60.0,
        "Latitude(deg)": 45.081370401949094,
        "Longitude(deg)": 104.80953028367904,
        "Mean Anomaly(deg)": 54.67185530915647,
        "RAAN(deg)": 169.9962195577423,
        "Satellite Name": "Test1 751",
        "Satellite Number": 751,
        "Semi-Major Axis(m)": 6980739.136638005,
        "Time(s)": 90
    },
    {
        "Altitude(m)": 608890.5860195308,
        "Argument of Periapsis(deg)": 0.0010418945913296407,
        "Eccentricity": 0.0,
        "Inclination(deg)": 60.0,
        "Latitude(deg)": 45.51935209696155,
        "Longitude(deg)": 105.39149878673183,
        "Mean Anomaly(deg)": 55.2919614546183,
        "RAAN(deg)": 169.99579950860257,
        "Satellite Name": "Test1 751",
        "Satellite Number": 751,
        "Semi-Major Axis(m)": 6980739.136638005,
        "Time(s)": 100
    },
    {
        "Altitude(m)": 608989.1850655411,
        "Argument of Periapsis(deg)": 0.0011460840504626045,
        "Eccentricity": 0.0,
        "Inclination(deg)": 60.0,
        "Latitude(deg)": 45.95384444162632,
        "Longitude(deg)": 105.98316729619224,
        "Mean Anomaly(deg)": 55.91206760008013,
        "RAAN(deg)": 169.99537945946284,
        "Satellite Name": "Test1 751",
        "Satellite Number": 751,
        "Semi-Major Axis(m)": 6980739.136638005,
        "Time(s)": 110
    },
    {
        "Altitude(m)": 609087.2154137581,
        "Argument of Periapsis(deg)": 0.0012502735095955685,
        "Eccentricity": 0.0,
        "Inclination(deg)": 60.0,
        "Latitude(deg)": 46.384740878523964,
        "Longitude(deg)": 106.5847570915173,
        "Mean Anomaly(deg)": 56.532173745541954,
        "RAAN(deg)": 169.9949594103231,
        "Satellite Name": "Test1 751",
        "Satellite Number": 751,
        "Semi-Major Axis(m)": 6980739.136638005,
        "Time(s)": 120
    },
    {
        "Altitude(m)": 609184.6174925917,
        "Argument of Periapsis(deg)": 0.0013544629687285324,
        "Eccentricity": 0.0,
        "Inclination(deg)": 60.0,
        "Latitude(deg)": 46.8119315872468,
        "Longitude(deg)": 107.19649165525772,
        "Mean Anomaly(deg)": 57.15227989100378,
        "RAAN(deg)": 169.99453936118334,
        "Satellite Name": "Test1 751",
        "Satellite Number": 751,
        "Semi-Major Axis(m)": 6980739.136638005,
        "Time(s)": 130
    },
    {
        "Altitude(m)": 609281.3322601662,
        "Argument of Periapsis(deg)": 0.0014586524278614966,
        "Eccentricity": 0.0,
        "Inclination(deg)": 60.0,
        "Latitude(deg)": 47.23530341020376,
        "Longitude(deg)": 107.81859532188248,
        "Mean Anomaly(deg)": 57.77238603646561,
        "RAAN(deg)": 169.9941193120436,
        "Satellite Name": "Test1 751",
        "Satellite Number": 751,
        "Semi-Major Axis(m)": 6980739.136638005,
        "Time(s)": 140
    },
    {
        "Altitude(m)": 609377.3012331899,
        "Argument of Periapsis(deg)": 0.0015628418869944607,
        "Eccentricity": 0.0,
        "Inclination(deg)": 60.0,
        "Latitude(deg)": 47.65473978129114,
        "Longitude(deg)": 108.45129339840385,
        "Mean Anomaly(deg)": 58.39249218192746,
        "RAAN(deg)": 169.99369926290387,
        "Satellite Name": "Test1 751",
        "Satellite Number": 751,
        "Semi-Major Axis(m)": 6980739.136638005,
        "Time(s)": 150
    },
    {
        "Altitude(m)": 609472.4665155218,
        "Argument of Periapsis(deg)": 0.0016670313461274247,
        "Eccentricity": 0.0,
        "Inclination(deg)": 60.0,
        "Latitude(deg)": 48.070120658088086,
        "Longitude(deg)": 109.09481224104034,
        "Mean Anomaly(deg)": 59.01259832738929,
        "RAAN(deg)": 169.99327921376414,
        "Satellite Name": "Test1 751",
        "Satellite Number": 751,
        "Semi-Major Axis(m)": 6980739.136638005,
        "Time(s)": 160
    },
    {
        "Altitude(m)": 609566.7708264224,
        "Argument of Periapsis(deg)": 0.0017712208052603888,
        "Eccentricity": 0.0,
        "Inclination(deg)": 60.0,
        "Latitude(deg)": 48.481322458300404,
        "Longitude(deg)": 109.74937777209661,
        "Mean Anomaly(deg)": 59.63270447285114,
        "RAAN(deg)": 169.99285916462438,
        "Satellite Name": "Test1 751",
        "Satellite Number": 751,
        "Semi-Major Axis(m)": 6980739.136638005,
        "Time(s)": 170
    },
    {
        "Altitude(m)": 609660.1575284635,
        "Argument of Periapsis(deg)": 0.001875410264393353,
        "Eccentricity": 0.0,
        "Inclination(deg)": 60.0,
        "Latitude(deg)": 48.888218001243075,
        "Longitude(deg)": 110.41521545983123,
        "Mean Anomaly(deg)": 60.25281061831297,
        "RAAN(deg)": 169.99243911548464,
        "Satellite Name": "Test1 751",
        "Satellite Number": 751,
        "Semi-Major Axis(m)": 6980739.136638005,
        "Time(s)": 180
    },
    {
        "Altitude(m)": 609752.5706550749,
        "Argument of Periapsis(deg)": 0.0019795997235263173,
        "Eccentricity": 0.0,
        "Inclination(deg)": 60.0,
        "Latitude(deg)": 49.29067645522661,
        "Longitude(deg)": 111.0925502454501,
        "Mean Anomaly(deg)": 60.87291676377477,
        "RAAN(deg)": 169.9920190663449,
        "Satellite Name": "Test1 751",
        "Satellite Number": 751,
        "Semi-Major Axis(m)": 6980739.136638005,
        "Time(s)": 190
    }
]